{"type": "FeatureCollection", "features": [ {"type": "Feature", "properties": {"norad_id": 66869, "name": "STARLINK-36092", "group": "last-30-days", "lat": -29.51948850851897, "lon": -106.28250413137529, "alt_km": 416.98875791721275, "timestamp": "2025-12-26T23:26:40.922208+00:00", "meta": {"OBJECT_NAME": "STARLINK-36092", "OBJECT_ID": "2025-281X", "EPOCH": "2025-12-26T18:00:02.998944", "MEAN_MOTION": 15.50558935, "ECCENTRICITY": 0.0001224, "INCLINATION": 43.0002, "RA_OF_ASC_NODE": 37.6263, "ARG_OF_PERICENTER": 254.8283, "MEAN_ANOMALY": 143.7158, "EPHEMERIS_TYPE": 0, "CLASSIFICATION_TYPE": "U", "NORAD_CAT_ID": 66869, "ELEMENT_SET_NO": 999, "REV_AT_EPOCH": 367, "BSTAR": 0.0007612, "MEAN_MOTION_DOT": 0.00044536, "MEAN_MOTION_DDOT": 0}, "tle": {"line1": "1 66869U 25281X   25360.75003471  .00044536  00000+0  76120-3 0  9996", "line2": "2 66869  43.0002  37.6263 0001224 254.8283 143.7158 15.50558935  3675"}}, "geometry": {"type": "Point", "coordinates": [-106.28250413137529, -29.51948850851897]}}, {"type": "Feature", "properties": {"norad_id": 66870, "name": "STARLINK-36114", "group": "last-30-days", "lat": -30.54185705733893, "lon": -104.42104214983655, "alt_km": 417.0483971304857, "timestamp": "2025-12-26T23:26:40.922218+00:00", "meta": {"OBJECT_NAME": "STARLINK-36114", "OBJECT_ID": "2025-281Y", "EPOCH": "2025-12-26T18:00:02.998944", "MEAN_MOTION": 15.50560992, "ECCENTRICITY": 0.0001154, "INCLINATION": 43.0004, "RA_OF_ASC_NODE": 37.6214, "ARG_OF_PERICENTER": 249.9296, "MEAN_ANOMALY": 150.5253, "EPHEMERIS_TYPE": 0, "CLASSIFICATION_TYPE": "U", "NORAD_CAT_ID": 66870, "ELEMENT_SET_NO": 999, "REV_AT_EPOCH": 353, "BSTAR": 0.00075152, "MEAN_MOTION_DOT": 0.00043965, "MEAN_MOTION_DDOT": 0}, "tle": {"line1": "1 66870U 25281Y   25360.75003471  .00043965  00000+0  75152-3 0  9997", "line2": "2 66870  43.0004  37.6214 0001154 249.9296 150.5253 15.50560992  3539"}}, "geometry": {"type": "Point", "coordinates": [-104.42104214983655, -30.54185705733893]}}, {"type": "Feature", "properties": {"norad_id": 66871, "name": "STARLINK-36095", "group": "last-30-days", "lat": -31.543754013178788, "lon": -102.50739402198207, "alt_km": 417.20474244392153, "timestamp": "2025-12-26T23:26:40.922227+00:00", "meta": {"OBJECT_NAME": "STARLINK-36095", "OBJECT_ID": "2025-281Z", "EPOCH": "2025-12-26T18:00:02.998944", "MEAN_MOTION": 15.5056041, "ECCENTRICITY": 9.78e-05, "INCLINATION": 43.0005, "RA_OF_ASC_NODE": 37.6162, "ARG_OF_PERICENTER": 248.3942, "MEAN_ANOMALY": 153.987, "EPHEMERIS_TYPE": 0, "CLASSIFICATION_TYPE": "U", "NORAD_CAT_ID": 66871, "ELEMENT_SET_NO": 999, "REV_AT_EPOCH": 367, "BSTAR": 0.00076126, "MEAN_MOTION_DOT": 0.00044542, "MEAN_MOTION_DDOT": 0}, "tle": {"line1": "1 66871U 25281Z   25360.75003471  .00044542  00000+0  76126-3 0  9992", "line2": "2 66871  43.0005  37.6162 0000978 248.3942 153.9870 15.50560410  3679"}}, "geometry": {"type": "Point", "coordinates": [-102.50739402198207, -31.543754013178788]}}, {"type": "Feature", "properties": {"norad_id": 66872, "name": "STARLINK-36082", "group": "last-30-days", "lat": -32.50610195309309, "lon": -100.57314487506834, "alt_km": 417.0984883976953, "timestamp": "2025-12-26T23:26:40.922236+00:00", "meta": {"OBJECT_NAME": "STARLINK-36082", "OBJECT_ID": "2025-281AA", "EPOCH": "2025-12-26T18:00:02.998944", "MEAN_MOTION": 15.50558894, "ECCENTRICITY": 0.0001271, "INCLINATION": 43.0003, "RA_OF_ASC_NODE": 37.6113, "ARG_OF_PERICENTER": 253.237, "MEAN_ANOMALY": 151.0547, "EPHEMERIS_TYPE": 0, "CLASSIFICATION_TYPE": "U", "NORAD_CAT_ID": 66872, "ELEMENT_SET_NO": 999, "REV_AT_EPOCH": 353, "BSTAR": 0.00074672, "MEAN_MOTION_DOT": 0.00043678, "MEAN_MOTION_DDOT": 0}, "tle": {"line1": "1 66872U 25281AA  25360.75003471  .00043678  00000+0  74672-3 0  9996", "line2": "2 66872  43.0003  37.6113 0001271 253.2370 151.0547 15.50558894  3539"}}, "geometry": {"type": "Point", "coordinates": [-100.57314487506834, -32.50610195309309]}}, {"type": "Feature", "properties": {"norad_id": 66873, "name": "STARLINK-36128", "group": "last-30-days", "lat": -35.21852936380283, "lon": -94.48426931041831, "alt_km": 417.23369734815515, "timestamp": "2025-12-26T23:26:40.922245+00:00", "meta": {"OBJECT_NAME": "STARLINK-36128", "OBJECT_ID": "2025-281AB", "EPOCH": "2025-12-26T18:00:02.998944", "MEAN_MOTION": 15.5056163, "ECCENTRICITY": 0.00012, "INCLINATION": 43.0003, "RA_OF_ASC_NODE": 37.5962, "ARG_OF_PERICENTER": 245.7594, "MEAN_ANOMALY": 164.2809, "EPHEMERIS_TYPE": 0, "CLASSIFICATION_TYPE": "U", "NORAD_CAT_ID": 66873, "ELEMENT_SET_NO": 999, "REV_AT_EPOCH": 367, "BSTAR": 0.00076509, "MEAN_MOTION_DOT": 0.00044771, "MEAN_MOTION_DDOT": 0}, "tle": {"line1": "1 66873U 25281AB  25360.75003471  .00044771  00000+0  76509-3 0  9993", "line2": "2 66873  43.0003  37.5962 0001200 245.7594 164.2809 15.50561630  3671"}}, "geometry": {"type": "Point", "coordinates": [-94.48426931041831, -35.21852936380283]}}, {"type": "Feature", "properties": {"norad_id": 66874, "name": "STARLINK-36129", "group": "last-30-days", "lat": -33.44457990170585, "lon": -98.58418994939994, "alt_km": 417.1755994230625, "timestamp": "2025-12-26T23:26:40.922255+00:00", "meta": {"OBJECT_NAME": "STARLINK-36129", "OBJECT_ID": "2025-281AC", "EPOCH": "2025-12-26T18:00:02.998944", "MEAN_MOTION": 15.50566655, "ECCENTRICITY": 0.0001168, "INCLINATION": 43.0004, "RA_OF_ASC_NODE": 37.6062, "ARG_OF_PERICENTER": 251.8539, "MEAN_ANOMALY": 154.3503, "EPHEMERIS_TYPE": 0, "CLASSIFICATION_TYPE": "U", "NORAD_CAT_ID": 66874, "ELEMENT_SET_NO": 999, "REV_AT_EPOCH": 367, "BSTAR": 0.0007816, "MEAN_MOTION_DOT": 0.00045759, "MEAN_MOTION_DDOT": 0}, "tle": {"line1": "1 66874U 25281AC  25360.75003471  .00045759  00000+0  78160-3 0  9996", "line2": "2 66874  43.0004  37.6062 0001168 251.8539 154.3503 15.50566655  3678"}}, "geometry": {"type": "Point", "coordinates": [-98.58418994939994, -33.44457990170585]}}, {"type": "Feature", "properties": {"norad_id": 66875, "name": "STARLINK-36053", "group": "last-30-days", "lat": -36.05035732898397, "lon": -92.37388144276059, "alt_km": 417.283946519452, "timestamp": "2025-12-26T23:26:40.922265+00:00", "meta": {"OBJECT_NAME": "STARLINK-36053", "OBJECT_ID": "2025-281AD", "EPOCH": "2025-12-26T18:00:02.998944", "MEAN_MOTION": 15.50558379, "ECCENTRICITY": 0.0001202, "INCLINATION": 43.0003, "RA_OF_ASC_NODE": 37.5906, "ARG_OF_PERICENTER": 247.5185, "MEAN_ANOMALY": 164.4371, "EPHEMERIS_TYPE": 0, "CLASSIFICATION_TYPE": "U", "NORAD_CAT_ID": 66875, "ELEMENT_SET_NO": 999, "REV_AT_EPOCH": 367, "BSTAR": 0.00078256, "MEAN_MOTION_DOT": 0.00045802, "MEAN_MOTION_DDOT": 0}, "tle": {"line1": "1 66875U 25281AD  25360.75003471  .00045802  00000+0  78256-3 0  9992", "line2": "2 66875  43.0003  37.5906 0001202 247.5185 164.4371 15.50558379  3671"}}, "geometry": {"type": "Point", "coordinates": [-92.37388144276059, -36.05035732898397]}}, {"type": "Feature", "properties": {"norad_id": 66876, "name": "STARLINK-35702", "group": "last-30-days", "lat": -34.347713112363444, "lon": -96.55747896928033, "alt_km": 417.22732013484983, "timestamp": "2025-12-26T23:26:40.922274+00:00", "meta": {"OBJECT_NAME": "STARLINK-35702", "OBJECT_ID": "2025-281AE", "EPOCH": "2025-12-26T18:00:02.998944", "MEAN_MOTION": 15.50570282, "ECCENTRICITY": 0.0001142, "INCLINATION": 43.0001, "RA_OF_ASC_NODE": 37.6015, "ARG_OF_PERICENTER": 251.3985, "MEAN_ANOMALY": 156.718, "EPHEMERIS_TYPE": 0, "CLASSIFICATION_TYPE": "U", "NORAD_CAT_ID": 66876, "ELEMENT_SET_NO": 999, "REV_AT_EPOCH": 367, "BSTAR": 0.00071378, "MEAN_MOTION_DOT": 0.00041742, "MEAN_MOTION_DDOT": 0}, "tle": {"line1": "1 66876U 25281AE  25360.75003471  .00041742  00000+0  71378-3 0  9990", "line2": "2 66876  43.0001  37.6015 0001142 251.3985 156.7180 15.50570282  3675"}}, "geometry": {"type": "Point", "coordinates": [-96.55747896928033, -34.347713112363444]}}, {"type": "Feature", "properties": {"norad_id": 66877, "name": "ZQ-3 R/B", "group": "last-30-days", "lat": -48.007810147673986, "lon": -44.36265214289588, "alt_km": 308.50279543133, "timestamp": "2025-12-26T23:26:40.922283+00:00", "meta": {"OBJECT_NAME": "ZQ-3 R/B", "OBJECT_ID": "2025-282A", "EPOCH": "2025-12-26T17:16:15.910176", "MEAN_MOTION": 14.88008524, "ECCENTRICITY": 0.0661331, "INCLINATION": 56.9484, "RA_OF_ASC_NODE": 2.9971, "ARG_OF_PERICENTER": 244.7229, "MEAN_ANOMALY": 108.3888, "EPHEMERIS_TYPE": 0, "CLASSIFICATION_TYPE": "U", "NORAD_CAT_ID": 66877, "ELEMENT_SET_NO": 999, "REV_AT_EPOCH": 345, "BSTAR": 0.00016027, "MEAN_MOTION_DOT": 0.00975006, "MEAN_MOTION_DDOT": 7.9917e-06}, "tle": {"line1": "1 66877U 25282A   25360.71962859  .00975006  79917-5  16027-3 0  9990", "line2": "2 66877  56.9484   2.9971 0661331 244.7229 108.3888 14.88008524  3458"}}, "geometry": {"type": "Point", "coordinates": [-44.36265214289588, -48.007810147673986]}}, {"type": "Feature", "properties": {"norad_id": 66878, "name": "STARLINK-35866", "group": "last-30-days", "lat": 32.81655311432178, "lon": 32.01049589577637, "alt_km": 399.6944497314853, "timestamp": "2025-12-26T23:26:40.922293+00:00", "meta": {"OBJECT_NAME": "STARLINK-35866", "OBJECT_ID": "2025-283A", "EPOCH": "2025-12-26T18:00:02.998944", "MEAN_MOTION": 15.5524823, "ECCENTRICITY": 0.0001352, "INCLINATION": 53.1596, "RA_OF_ASC_NODE": 4.1915, "ARG_OF_PERICENTER": 86.5768, "MEAN_ANOMALY": 125.8486, "EPHEMERIS_TYPE": 0, "CLASSIFICATION_TYPE": "U", "NORAD_CAT_ID": 66878, "ELEMENT_SET_NO": 999, "REV_AT_EPOCH": 468, "BSTAR": -0.033431, "MEAN_MOTION_DOT": -0.02054393, "MEAN_MOTION_DDOT": 0}, "tle": {"line1": "1 66878U 25283A   25360.75003471 -.02054393  00000+0 -33431-1 0  9990", "line2": "2 66878  53.1596   4.1915 0001352  86.5768 125.8486 15.55248230  4684"}}, "geometry": {"type": "Point", "coordinates": [32.01049589577637, 32.81655311432178]}}]}